[
    {
        "Altitude(m)": 702997.1514003125,
        "Argument of Periapsis(deg)": 0.005695060593313534,
        "Eccentricity": 0.0,
        "Inclination(deg)": 45.0,
        "Latitude(deg)": 4.041637443957187,
        "Longitude(deg)": 123.65825471959677,
        "Mean Anomaly(deg)": 5.766608323740412,
        "RAAN(deg)": 219.99462402927088,
        "Satellite Name": "Constellation 1 968",
        "Satellite Number": 968,
        "Semi-Major Axis(m)": 7083131.272910544,
        "Time(s)": 95
    },
    {
        "Altitude(m)": 702993.5041948877,
        "Argument of Periapsis(deg)": 0.00575500859955894,
        "Eccentricity": 0.0,
        "Inclination(deg)": 45.0,
        "Latitude(deg)": 4.084748985815861,
        "Longitude(deg)": 123.69722412473568,
        "Mean Anomaly(deg)": 5.827309463990298,
        "RAAN(deg)": 219.99456744010533,
        "Satellite Name": "Constellation 1 968",
        "Satellite Number": 968,
        "Semi-Major Axis(m)": 7083131.272910544,
        "Time(s)": 96
    },
    {
        "Altitude(m)": 702989.8778321992,
        "Argument of Periapsis(deg)": 0.005814956605804345,
        "Eccentricity": 0.0,
        "Inclination(deg)": 45.0,
        "Latitude(deg)": 4.127858223439556,
        "Longitude(deg)": 123.73619835168388,
        "Mean Anomaly(deg)": 5.88801060424021,
        "RAAN(deg)": 219.99451085093978,
        "Satellite Name": "Constellation 1 968",
        "Satellite Number": 968,
        "Semi-Major Axis(m)": 7083131.272910544,
        "Time(s)": 97
    },
    {
        "Altitude(m)": 702986.2723097616,
        "Argument of Periapsis(deg)": 0.00587490461204975,
        "Eccentricity": 0.0,
        "Inclination(deg)": 45.0,
        "Latitude(deg)": 4.170965131450068,
        "Longitude(deg)": 123.77517728116564,
        "Mean Anomaly(deg)": 5.9487117444900965,
        "RAAN(deg)": 219.99445426177417,
        "Satellite Name": "Constellation 1 968",
        "Satellite Number": 968,
        "Semi-Major Axis(m)": 7083131.272910544,
        "Time(s)": 98
    },
    {
        "Altitude(m)": 702982.6876250098,
        "Argument of Periapsis(deg)": 0.005934852618295156,
        "Eccentricity": 0.0,
        "Inclination(deg)": 45.0,
        "Latitude(deg)": 4.214069684459993,
        "Longitude(deg)": 123.81416096201325,
        "Mean Anomaly(deg)": 6.009412884740009,
        "RAAN(deg)": 219.9943976726086,
        "Satellite Name": "Constellation 1 968",
        "Satellite Number": 968,
        "Semi-Major Axis(m)": 7083131.272910544,
        "Time(s)": 99
    },
    {
        "Altitude(m)": 702979.1237752759,
        "Argument of Periapsis(deg)": 0.005994800624540561,
        "Eccentricity": 0.0,
        "Inclination(deg)": 45.0,
        "Latitude(deg)": 4.257171857072785,
        "Longitude(deg)": 123.85314944306937,
        "Mean Anomaly(deg)": 6.070114024989921,
        "RAAN(deg)": 219.99434108344303,
        "Satellite Name": "Constellation 1 968",
        "Satellite Number": 968,
        "Semi-Major Axis(m)": 7083131.272910544,
        "Time(s)": 100
    },
    {
        "Altitude(m)": 702975.5807578064,
        "Argument of Periapsis(deg)": 0.006054748630785968,
        "Eccentricity": 0.0,
        "Inclination(deg)": 45.0,
        "Latitude(deg)": 4.300271623882645,
        "Longitude(deg)": 123.8921427731879,
        "Mean Anomaly(deg)": 6.130815165239807,
        "RAAN(deg)": 219.99428449427748,
        "Satellite Name": "Constellation 1 968",
        "Satellite Number": 968,
        "Semi-Major Axis(m)": 7083131.272910544,
        "Time(s)": 101
    },
    {
        "Altitude(m)": 702972.0585697434,
        "Argument of Periapsis(deg)": 0.006114696637031373,
        "Eccentricity": 0.0,
        "Inclination(deg)": 45.0,
        "Latitude(deg)": 4.343368959474469,
        "Longitude(deg)": 123.93114100123327,
        "Mean Anomaly(deg)": 6.191516305489719,
        "RAAN(deg)": 219.99422790511193,
        "Satellite Name": "Constellation 1 968",
        "Satellite Number": 968,
        "Semi-Major Axis(m)": 7083131.272910544,
        "Time(s)": 102
    },
    {
        "Altitude(m)": 702968.5572081531,
        "Argument of Periapsis(deg)": 0.006174644643276778,
        "Eccentricity": 0.0,
        "Inclination(deg)": 45.0,
        "Latitude(deg)": 4.386463838423703,
        "Longitude(deg)": 123.97014417608116,
        "Mean Anomaly(deg)": 6.252217445739605,
        "RAAN(deg)": 219.99417131594632,
        "Satellite Name": "Constellation 1 968",
        "Satellite Number": 968,
        "Semi-Major Axis(m)": 7083131.272910544,
        "Time(s)": 103
    },
    {
        "Altitude(m)": 702965.0766700011,
        "Argument of Periapsis(deg)": 0.006234592649522184,
        "Eccentricity": 0.0,
        "Inclination(deg)": 45.0,
        "Latitude(deg)": 4.4295562352964435,
        "Longitude(deg)": 124.00915217852133,
        "Mean Anomaly(deg)": 6.312918585989518,
        "RAAN(deg)": 219.99411472678077,
        "Satellite Name": "Constellation 1 968",
        "Satellite Number": 968,
        "Semi-Major Axis(m)": 7083131.272910544,
        "Time(s)": 104
    },
    {
        "Altitude(m)": 702961.6169521561,
        "Argument of Periapsis(deg)": 0.00629454065576759,
        "Eccentricity": 0.0,
        "Inclination(deg)": 45.0,
        "Latitude(deg)": 4.47264612464873,
        "Longitude(deg)": 124.04816539364583,
        "Mean Anomaly(deg)": 6.373619726239403,
        "RAAN(deg)": 219.9940581376152,
        "Satellite Name": "Constellation 1 968",
        "Satellite Number": 968,
        "Semi-Major Axis(m)": 7083131.272910544,
        "Time(s)": 105
    },
    {
        "Altitude(m)": 702958.1780514024,
        "Argument of Periapsis(deg)": 0.006354488662012995,
        "Eccentricity": 0.0,
        "Inclination(deg)": 45.0,
        "Latitude(deg)": 4.515733481027333,
        "Longitude(deg)": 124.08718370226701,
        "Mean Anomaly(deg)": 6.4343208664893154,
        "RAAN(deg)": 219.99400154844963,
        "Satellite Name": "Constellation 1 968",
        "Satellite Number": 968,
        "Semi-Major Axis(m)": 7083131.272910544,
        "Time(s)": 106
    },
    {
        "Altitude(m)": 702954.7599644287,
        "Argument of Periapsis(deg)": 0.006414436668258401,
        "Eccentricity": 0.0,
        "Inclination(deg)": 45.0,
        "Latitude(deg)": 4.558818278969092,
        "Longitude(deg)": 124.12620715330569,
        "Mean Anomaly(deg)": 6.495022006739203,
        "RAAN(deg)": 219.99394495928408,
        "Satellite Name": "Constellation 1 968",
        "Satellite Number": 968,
        "Semi-Major Axis(m)": 7083131.272910544,
        "Time(s)": 107
    },
    {
        "Altitude(m)": 702951.362687832,
        "Argument of Periapsis(deg)": 0.0064743846745038075,
        "Eccentricity": 0.0,
        "Inclination(deg)": 45.0,
        "Latitude(deg)": 4.601900493000936,
        "Longitude(deg)": 124.16523579569419,
        "Mean Anomaly(deg)": 6.555723146989089,
        "RAAN(deg)": 219.99388837011847,
        "Satellite Name": "Constellation 1 968",
        "Satellite Number": 968,
        "Semi-Major Axis(m)": 7083131.272910544,
        "Time(s)": 108
    },
    {
        "Altitude(m)": 702947.9862181182,
        "Argument of Periapsis(deg)": 0.0065343326807492125,
        "Eccentricity": 0.0,
        "Inclination(deg)": 45.0,
        "Latitude(deg)": 4.644980097639864,
        "Longitude(deg)": 124.20426967837665,
        "Mean Anomaly(deg)": 6.616424287239,
        "RAAN(deg)": 219.99383178095292,
        "Satellite Name": "Constellation 1 968",
        "Satellite Number": 968,
        "Semi-Major Axis(m)": 7083131.272910544,
        "Time(s)": 109
    },
    {
        "Altitude(m)": 702944.6305516987,
        "Argument of Periapsis(deg)": 0.0065942806869946176,
        "Eccentricity": 0.0,
        "Inclination(deg)": 45.0,
        "Latitude(deg)": 4.688057067392745,
        "Longitude(deg)": 124.24330885030878,
        "Mean Anomaly(deg)": 6.677125427488887,
        "RAAN(deg)": 219.99377519178736,
        "Satellite Name": "Constellation 1 968",
        "Satellite Number": 968,
        "Semi-Major Axis(m)": 7083131.272910544,
        "Time(s)": 110
    },
    {
        "Altitude(m)": 702941.2956848905,
        "Argument of Periapsis(deg)": 0.006654228693240024,
        "Eccentricity": 0.0,
        "Inclination(deg)": 45.0,
        "Latitude(deg)": 4.731131376756456,
        "Longitude(deg)": 124.28235319236123,
        "Mean Anomaly(deg)": 6.737826567738798,
        "RAAN(deg)": 219.99371860262178,
        "Satellite Name": "Constellation 1 968",
        "Satellite Number": 968,
        "Semi-Major Axis(m)": 7083131.272910544,
        "Time(s)": 111
    },
    {
        "Altitude(m)": 702937.9816139293,
        "Argument of Periapsis(deg)": 0.006714176699485429,
        "Eccentricity": 0.0,
        "Inclination(deg)": 45.0,
        "Latitude(deg)": 4.774203000217163,
        "Longitude(deg)": 124.3214030897077,
        "Mean Anomaly(deg)": 6.7985277079886846,
        "RAAN(deg)": 219.99366201345623,
        "Satellite Name": "Constellation 1 968",
        "Satellite Number": 968,
        "Semi-Major Axis(m)": 7083131.272910544,
        "Time(s)": 112
    },
    {
        "Altitude(m)": 702934.688334945,
        "Argument of Periapsis(deg)": 0.006774124705730835,
        "Eccentricity": 0.0,
        "Inclination(deg)": 45.0,
        "Latitude(deg)": 4.817271912251129,
        "Longitude(deg)": 124.36045842324282,
        "Mean Anomaly(deg)": 6.8592288482385975,
        "RAAN(deg)": 219.99360542429068,
        "Satellite Name": "Constellation 1 968",
        "Satellite Number": 968,
        "Semi-Major Axis(m)": 7083131.272910544,
        "Time(s)": 113
    }
]